OBJECT_NAME,OBJECT_ID,EPOCH,MEAN_MOTION,ECCENTRICITY,INCLINATION,RA_OF_ASC_NODE,ARG_OF_PERICENTER,MEAN_ANOMALY,EPHEMERIS_TYPE,CLASSIFICATION_TYPE,NORAD_CAT_ID,ELEMENT_SET_NO,REV_AT_EPOCH,BSTAR,MEAN_MOTION_DOT,MEAN_MOTION_DDOT
TDRS 13,2017-047A,2026-06-26T17:37:59.071008,1.00272679,.0015089,3.4538,2.9774,107.2241,57.7220,0,U,42915,999,3244,0,-.91E-6,0
QZS-3 (MICHIBIKI-3),2017-048A,2026-06-26T17:17:38.771232,1.00272113,.0002278,0.0674,148.4852,303.2042,209.6105,0,U,42917,999,3235,0,-.336E-5,0
AMAZONAS 5,2017-053A,2026-06-24T00:22:44.611968,1.00268513,.00019519,0.0291,328.4439,87.3334,161.0747,0,U,42934,999,3211,0,-.275E-5,0
INTELSAT 37E (IS-37E),2017-059A,2026-06-26T17:36:06.751008,1.00271477,.0002896,0.0042,90.8404,3.4683,66.5748,0,U,42950,999,3216,0,-.129E-5,0
BSAT-4A,2017-059B,2026-06-26T14:47:13.193088,1.00271305,.0004241,0.0356,16.7156,57.5077,172.1488,0,U,42951,999,3189,0,-.339E-5,0
QZS-4 (MICHIBIKI-4),2017-062A,2026-06-26T08:02:03.810048,1.00296962,.0746721,40.1041,343.3683,268.2556,281.2054,0,U,42965,999,3189,0,-.355E-5,0
SES-11 (ECHOSTAR 105),2017-063A,2026-06-26T17:10:58.560384,1.00271630,.0002975,0.0318,305.6382,146.3969,335.6012,0,U,42967,999,3181,0,-.78E-6,0
KOREASAT 5A,2017-067A,2026-06-26T09:40:12.110016,1.00270893,.0000885,0.0093,338.6022,113.7356,80.3955,0,U,42984,999,3162,0,-.347E-5,0
ALCOMSAT 1,2017-078A,2026-06-26T17:34:06.941856,1.00270000,.0002665,0.0213,14.9582,76.8909,61.7318,0,U,43039,999,3139,0,0,0
SBIRS GEO-3 (USA 282),2018-009A,2026-06-26T16:55:45.020352,1.00272634,.0002291,2.1908,12.5601,75.3596,281.4401,0,U,43162,999,3093,0,.138E-5,0
AL YAH 3,2018-012A,2026-06-26T17:35:29.311296,1.00272129,.0004164,1.5763,83.0076,9.8113,65.7918,0,U,43174,999,3094,0,-.145E-5,0
SES-14,2018-012B,2026-06-26T17:27:22.588128,1.00271622,.0001255,0.0158,25.1497,67.1059,36.9323,0,U,43175,999,712,0,-.267E-5,0
GOES 17,2018-022A,2026-06-26T15:32:59.809344,1.00272766,.0000691,0.9607,85.5548,24.2666,308.6865,0,U,43226,999,3051,0,-.172E-5,0
HISPASAT 30W-6,2018-023A,2026-06-26T10:41:58.499808,1.00273554,.0005973,0.0436,43.2096,33.8480,327.9970,0,U,43228,999,3049,0,-.205E-5,0
SUPERBIRD-B3,2018-033A,2026-06-26T13:19:26.344992,1.00271415,.0001555,0.0149,340.1963,130.0633,166.2682,0,U,43271,999,3015,0,-.81E-6,0
HYLAS 4,2018-033B,2026-06-24T19:19:48.484128,1.00269267,.00010305,0.0258,22.8939,96.9112,49.5742,0,U,43272,999,3014,0,0,0
IRNSS-1I,2018-035A,2026-06-24T19:11:38.629824,1.00275960,.00176215,28.7725,74.0767,182.3144,359.3363,0,U,43286,999,3015,0,.66E-6,0
USA 283,2018-036A,2026-06-25T09:48:28.433088,1.00269479,.0000352,0.0077,1.2048,95.8048,97.7845,0,U,43339,999,2537,0,0,0
COSMOS 2526,2018-037A,2026-06-26T01:11:05.728704,1.00269587,.00005797,0.0264,47.8004,196.3187,175.8792,0,U,43432,999,3004,0,-.334E-5,0
APSTAR-6C,2018-041A,2026-06-26T18:19:21.274752,1.00271266,.0000717,0.0216,353.2606,18.4932,311.9826,0,U,43450,999,2990,0,-.306E-5,0
BANGABANDHUSAT-1,2018-044A,2026-06-26T16:32:32.243712,1.00272489,.0002062,0.0169,50.2921,49.0571,182.6962,0,U,43463,999,2980,0,-.351E-5,0
SES-12,2018-049A,2026-06-24T21:43:00.943392,1.00271664,.00004852,0.0123,7.4810,300.7127,25.6053,0,U,43488,999,2949,0,-.26E-5,0
FENGYUN 2H,2018-050A,2026-06-26T18:03:48.490848,1.00269785,.0001684,3.0563,78.9679,123.4572,62.7379,0,U,43491,999,2953,0,-.121E-5,0
BEIDOU-2 IGSO-7,2018-057A,2026-06-26T12:08:29.940576,1.00249004,.0104768,55.1970,162.9757,237.9790,164.9478,0,U,43539,999,2922,0,-.28E-6,0
TELSTAR 19V,2018-059A,2026-06-26T12:15:15.058080,1.00270624,.0002997,0.0295,136.4401,339.3274,279.6738,0,U,43562,999,2923,0,-.268E-5,0
TELKOM 4 (MERAH PUTIH),2018-064A,2026-06-26T13:04:04.089792,1.00272351,.0001684,0.0158,65.3279,50.9024,102.4486,0,U,43587,999,2897,0,-.333E-5,0
TELSTAR 18V,2018-069A,2026-06-26T16:37:54.228864,1.00270208,.000213,0.0179,337.6513,115.0952,209.5253,0,U,43611,999,2873,0,-.283E-5,0
AZERSPACE 2 (IS-38),2018-074A,2026-06-25T04:15:28.573056,1.00272596,.00015866,0.0035,82.5969,10.3273,289.3716,0,U,43632,999,2852,0,.146E-5,0
HORIZONS-3E,2018-074B,2026-06-24T03:11:02.118624,1.00270268,.00005468,0.0084,244.9552,64.2971,179.8035,0,U,43633,999,2841,0,-.24E-6,0
AEHF-4 (USA 288),2018-079A,2026-06-26T12:14:00.176064,1.00270189,.0060117,1.4350,4.7799,355.9212,29.9028,0,U,43651,999,2839,0,-.265E-5,0
BEIDOU-3 G1,2018-085A,2026-06-26T16:44:08.632032,1.00271037,.000854,2.8928,97.1146,351.5726,237.0933,0,U,43683,999,2815,0,-.1E-5,0
