TDRS 13                 
1 42915U 17047A   26177.73471147 -.00000091  00000+0  00000+0 0  9996
2 42915   3.4538   2.9774 0015089 107.2241  57.7220  1.00272679 32445
QZS-3 (MICHIBIKI-3)     
1 42917U 17048A   26177.72058763 -.00000336  00000+0  00000+0 0  9995
2 42917   0.0674 148.4852 0002278 303.2042 209.6105  1.00272113 32350
AMAZONAS 5              
1 42934U 17053A   26175.01579412 -.00000275  00000+0  00000+0 0  9991
2 42934   0.0291 328.4439 0001951  87.3334 161.0747  1.00268513 32112
INTELSAT 37E (IS-37E)   
1 42950U 17059A   26177.73341147 -.00000129  00000+0  00000+0 0  9996
2 42950   0.0042  90.8404 0002896   3.4683  66.5748  1.00271477 32169
BSAT-4A                 
1 42951U 17059B   26177.61612492 -.00000339  00000+0  00000+0 0  9991
2 42951   0.0356  16.7156 0004241  57.5077 172.1488  1.00271305 31896
QZS-4 (MICHIBIKI-4)     
1 42965U 17062A   26177.33476632 -.00000355  00000+0  00000+0 0  9991
2 42965  40.1041 343.3683 0746721 268.2556 281.2054  1.00296962 31897
SES-11 (ECHOSTAR 105)   
1 42967U 17063A   26177.71595556 -.00000078  00000+0  00000+0 0  9995
2 42967   0.0318 305.6382 0002975 146.3969 335.6012  1.00271630 31813
KOREASAT 5A             
1 42984U 17067A   26177.40291794 -.00000347  00000+0  00000+0 0  9990
2 42984   0.0093 338.6022 0000885 113.7356  80.3955  1.00270893 31624
ALCOMSAT 1              
1 43039U 17078A   26177.73202479  .00000000  00000+0  00000+0 0  9997
2 43039   0.0213  14.9582 0002665  76.8909  61.7318  1.00270000 31396
SBIRS GEO-3 (USA 282)   
1 43162U 18009A   26177.70538218  .00000138  00000+0  00000+0 0  9991
2 43162   2.1908  12.5601 0002291  75.3596 281.4401  1.00272634 30932
AL YAH 3                
1 43174U 18012A   26177.73297814 -.00000145  00000+0  00000+0 0  9994
2 43174   1.5763  83.0076 0004164   9.8113  65.7918  1.00272129 30940
SES-14                  
1 43175U 18012B   26177.72734477 -.00000267  00000+0  00000+0 0  9990
2 43175   0.0158  25.1497 0001255  67.1059  36.9323  1.00271622  7122
GOES 17                 
1 43226U 18022A   26177.64791446 -.00000172  00000+0  00000+0 0  9993
2 43226   0.9607  85.5548 0000691  24.2666 308.6865  1.00272766 30514
HISPASAT 30W-6          
1 43228U 18023A   26177.44581597 -.00000205  00000+0  00000+0 0  9995
2 43228   0.0436  43.2096 0005973  33.8480 327.9970  1.00273554 30498
SUPERBIRD-B3            
1 43271U 18033A   26177.55516603 -.00000081  00000+0  00000+0 0  9994
2 43271   0.0149 340.1963 0001555 130.0633 166.2682  1.00271415 30152
HYLAS 4                 
1 43272U 18033B   26175.80542227  .00000000  00000+0  00000+0 0  9992
2 43272   0.0258  22.8939 0001030  96.9112  49.5742  1.00269267 30142
IRNSS-1I                
1 43286U 18035A   26175.79975266  .00000066  00000+0  00000+0 0  9992
2 43286  28.7725  74.0767 0017621 182.3144 359.3363  1.00275960 30158
USA 283                 
1 43339U 18036A   26176.40866242  .00000000  00000+0  00000+0 0  9992
2 43339   0.0077   1.2048 0000352  95.8048  97.7845  1.00269479 25372
COSMOS 2526             
1 43432U 18037A   26177.04937186 -.00000334  00000+0  00000+0 0  9995
2 43432   0.0264  47.8004 0000579 196.3187 175.8792  1.00269587 30043
APSTAR-6C               
1 43450U 18041A   26177.76344068 -.00000306  00000+0  00000+0 0  9999
2 43450   0.0216 353.2606 0000717  18.4932 311.9826  1.00271266 29909
BANGABANDHUSAT-1        
1 43463U 18044A   26177.68926208 -.00000351  00000+0  00000+0 0  9999
2 43463   0.0169  50.2921 0002062  49.0571 182.6962  1.00272489 29809
SES-12                  
1 43488U 18049A   26175.90487203 -.00000260  00000+0  00000+0 0  9990
2 43488   0.0123   7.4810 0000485 300.7127  25.6053  1.00271664 29494
FENGYUN 2H              
1 43491U 18050A   26177.75264457 -.00000121  00000+0  00000+0 0  9991
2 43491   3.0563  78.9679 0001684 123.4572  62.7379  1.00269785 29530
BEIDOU-2 IGSO-7         
1 43539U 18057A   26177.50590209 -.00000028  00000+0  00000+0 0  9997
2 43539  55.1970 162.9757 0104768 237.9790 164.9478  1.00249004 29227
TELSTAR 19V             
1 43562U 18059A   26177.51059095 -.00000268  00000+0  00000+0 0  9995
2 43562   0.0295 136.4401 0002997 339.3274 279.6738  1.00270624 29235
TELKOM 4 (MERAH PUTIH)  
1 43587U 18064A   26177.54449178 -.00000333  00000+0  00000+0 0  9999
2 43587   0.0158  65.3279 0001684  50.9024 102.4486  1.00272351 28976
TELSTAR 18V             
1 43611U 18069A   26177.69298876 -.00000283  00000+0  00000+0 0  9999
2 43611   0.0179 337.6513 0002130 115.0952 209.5253  1.00270208 28737
AZERSPACE 2 (IS-38)     
1 43632U 18074A   26176.17741404  .00000146  00000+0  00000+0 0  9997
2 43632   0.0035  82.5969 0001586  10.3273 289.3716  1.00272596 28528
HORIZONS-3E             
1 43633U 18074B   26175.13266341 -.00000024  00000+0  00000+0 0  9991
2 43633   0.0084 244.9552 0000546  64.2971 179.8035  1.00270268 28412
AEHF-4 (USA 288)        
1 43651U 18079A   26177.50972426 -.00000265  00000+0  00000+0 0  9994
2 43651   1.4350   4.7799 0060117 355.9212  29.9028  1.00270189 28392
BEIDOU-3 G1             
1 43683U 18085A   26177.69732213 -.00000100  00000+0  00000+0 0  9992
2 43683   2.8928  97.1146 0008540 351.5726 237.0933  1.00271037 28153
